[{"OBJECT_NAME":"SHIYAN-6 01 (SY-6 01)","OBJECT_ID":"2018-094B","EPOCH":"2026-03-09T23:04:36.967872","MEAN_MOTION":15.28649156,"ECCENTRICITY":0.00144834,"INCLINATION":97.3669,"RA_OF_ASC_NODE":84.0964,"ARG_OF_PERICENTER":135.6758,"MEAN_ANOMALY":224.5644,"EPHEMERIS_TYPE":0,"CLASSIFICATION_TYPE":"U","NORAD_CAT_ID":43711,"ELEMENT_SET_NO":999,"REV_AT_EPOCH":40632,"BSTAR":0.00024768444,"MEAN_MOTION_DOT":6.847e-5,"MEAN_MOTION_DDOT":0},{"OBJECT_NAME":"STARLINK-35813","OBJECT_ID":"2025-254P","EPOCH":"2026-03-09T17:17:01.614912","MEAN_MOTION":15.301753,"ECCENTRICITY":0.00010649,"INCLINATION":53.1597,"RA_OF_ASC_NODE":232.0746,"ARG_OF_PERICENTER":87.3325,"MEAN_ANOMALY":272.7798,"EPHEMERIS_TYPE":0,"CLASSIFICATION_TYPE":"U","NORAD_CAT_ID":66361,"ELEMENT_SET_NO":999,"REV_AT_EPOCH":1898,"BSTAR":0.00090758873,"MEAN_MOTION_DOT":0.00026597,"MEAN_MOTION_DDOT":0}]
